HYPERFIELD-1A           
1 60562U 24149CY  26068.76488211  .00008569  00000+0  30052-3 0  9998
2 60562  97.3842 149.5066 0003865 313.7844  46.3076 15.29681349 86836
STARLINK-33936          
1 64005U 25101M   26068.14697958  .00039271  00000+0  14286-2 0  9999
2 64005  43.0037   0.9080 0001447 286.5421  73.5271 15.27589114 46979
